start=new Date('2022-03-06T00:00:00.000Z').valueOf();
sats=[{"MEAN_MOTION_DDOT":"0.0000000000000","FILE":"3346512","REF_FRAME":"TEME","NORAD_CAT_ID":"48122","LAUNCH_DATE":"2021-04-07","MEAN_ANOMALY":"294.7090","INCLINATION":"53.0540","EPOCH":"2022-03-05T21:40:56.097120","TLE_LINE2":"2 48122  53.0540 252.3020 0001684  65.4074 294.7090 15.06416898 51853","RA_OF_ASC_NODE":"252.3020","EPHEMERIS_TYPE":"0","DECAY_DATE":null,"MEAN_MOTION":"15.06416898","ARG_OF_PERICENTER":"65.4074","CLASSIFICATION_TYPE":"U","GP_ID":"198018682","COUNTRY_CODE":"US","APOAPSIS":"548.328","RCS_SIZE":"LARGE","MEAN_MOTION_DOT":"0.00006688","OBJECT_NAME":"STARLINK-2463","PERIAPSIS":"545.996","OBJECT_TYPE":"PAYLOAD","PERIOD":"95.591","SEMIMAJOR_AXIS":"6925.297","SITE":"AFETR","TLE_LINE1":"1 48122U 21027AG  22064.90342705  .00006688  00000-0  46724-3 0  9997","ELEMENT_SET_NO":"999","ECCENTRICITY":"0.00016840","OBJECT_ID":"2021-027AG","BSTAR":"0.00046724000000","REV_AT_EPOCH":"5185","MEAN_ELEMENT_THEORY":"SGP4","TIME_SYSTEM":"UTC","CENTER_NAME":"EARTH"},{"ECCENTRICITY":"0.00012620","OBJECT_ID":"2021-027AH","BSTAR":"0.00006499200000","MEAN_ELEMENT_THEORY":"SGP4","REV_AT_EPOCH":"5192","CENTER_NAME":"EARTH","TIME_SYSTEM":"UTC","SITE":"AFETR","SEMIMAJOR_AXIS":"6925.367","OBJECT_TYPE":"PAYLOAD","PERIOD":"95.593","ELEMENT_SET_NO":"999","TLE_LINE1":"1 48123U 21027AH  22064.91036941  .00000687  00000-0  64992-4 0  9992","CLASSIFICATION_TYPE":"U","COUNTRY_CODE":"US","GP_ID":"198018933","APOAPSIS":"548.106","DECAY_DATE":null,"MEAN_MOTION":"15.06393998","ARG_OF_PERICENTER":"89.5243","PERIAPSIS":"546.358","MEAN_MOTION_DOT":"0.00000687","RCS_SIZE":"LARGE","OBJECT_NAME":"STARLINK-2464","FILE":"3346512","REF_FRAME":"TEME","NORAD_CAT_ID":"48123","LAUNCH_DATE":"2021-04-07","MEAN_MOTION_DDOT":"0.0000000000000","EPOCH":"2022-03-05T21:50:55.917024","EPHEMERIS_TYPE":"0","TLE_LINE2":"2 48123  53.0544 247.2626 0001262  89.5243 270.5890 15.06393998 51923","RA_OF_ASC_NODE":"247.2626","MEAN_ANOMALY":"270.5890","INCLINATION":"53.0544"},{"MEAN_MOTION_DDOT":"0.0000000000000","NORAD_CAT_ID":"48124","LAUNCH_DATE":"2021-04-07","REF_FRAME":"TEME","FILE":"3346512","MEAN_ANOMALY":"287.9778","INCLINATION":"53.0537","RA_OF_ASC_NODE":"257.2841","TLE_LINE2":"2 48124  53.0537 257.2841 0001445  72.1369 287.9778 15.06410875 51770","EPHEMERIS_TYPE":"0","EPOCH":"2022-03-05T21:49:35.641920","ARG_OF_PERICENTER":"72.1369","MEAN_MOTION":"15.06410875","DECAY_DATE":null,"APOAPSIS":"548.181","GP_ID":"198017182","COUNTRY_CODE":"US","CLASSIFICATION_TYPE":"U","RCS_SIZE":"LARGE","MEAN_MOTION_DOT":"0.00001162","OBJECT_NAME":"STARLINK-2465","PERIAPSIS":"546.180","PERIOD":"95.591","OBJECT_TYPE":"PAYLOAD","SEMIMAJOR_AXIS":"6925.315","SITE":"AFETR","TLE_LINE1":"1 48124U 21027AJ  22064.90944030  .00001162  00000-0  96857-4 0  9993","ELEMENT_SET_NO":"999","OBJECT_ID":"2021-027AJ","ECCENTRICITY":"0.00014450","TIME_SYSTEM":"UTC","CENTER_NAME":"EARTH","REV_AT_EPOCH":"5177","BSTAR":"0.00009685700000","MEAN_ELEMENT_THEORY":"SGP4"},{"RCS_SIZE":"LARGE","MEAN_MOTION_DOT":"0.00001418","OBJECT_NAME":"STARLINK-2466","PERIAPSIS":"546.027","MEAN_MOTION":"15.06406961","ARG_OF_PERICENTER":"77.9143","DECAY_DATE":null,"COUNTRY_CODE":"US","GP_ID":"198017432","APOAPSIS":"548.358","CLASSIFICATION_TYPE":"U","INCLINATION":"53.0530","MEAN_ANOMALY":"282.2035","TLE_LINE2":"2 48125  53.0530 267.6193 0001683  77.9143 282.2035 15.06406961 51636","RA_OF_ASC_NODE":"267.6193","EPHEMERIS_TYPE":"0","EPOCH":"2022-03-05T20:00:44.935488","MEAN_MOTION_DDOT":"0.0000000000000","NORAD_CAT_ID":"48125","LAUNCH_DATE":"2021-04-07","REF_FRAME":"TEME","FILE":"3346512","CENTER_NAME":"EARTH","TIME_SYSTEM":"UTC","REV_AT_EPOCH":"5163","BSTAR":"0.00011405000000","MEAN_ELEMENT_THEORY":"SGP4","ECCENTRICITY":"0.00016830","OBJECT_ID":"2021-027AK","TLE_LINE1":"1 48125U 21027AK  22064.83385342  .00001418  00000-0  11405-3 0  9990","ELEMENT_SET_NO":"999","PERIOD":"95.592","OBJECT_TYPE":"PAYLOAD","SITE":"AFETR","SEMIMAJOR_AXIS":"6925.327"},{"DECAY_DATE":null,"ARG_OF_PERICENTER":"91.5803","MEAN_MOTION":"15.06400667","CLASSIFICATION_TYPE":"U","APOAPSIS":"548.104","GP_ID":"198018183","COUNTRY_CODE":"US","RCS_SIZE":"LARGE","OBJECT_NAME":"STARLINK-2467","MEAN_MOTION_DOT":"0.00001190","PERIAPSIS":"546.319","MEAN_MOTION_DDOT":"0.0000000000000","FILE":"3346512","REF_FRAME":"TEME","NORAD_CAT_ID":"48126","LAUNCH_DATE":"2021-04-07","INCLINATION":"53.0540","MEAN_ANOMALY":"268.5334","EPOCH":"2022-03-05T19:27:36.713376","RA_OF_ASC_NODE":"247.7049","TLE_LINE2":"2 48126  53.0540 247.7049 0001289  91.5803 268.5334 15.06400667 51911","EPHEMERIS_TYPE":"0","OBJECT_ID":"2021-027AL","ECCENTRICITY":"0.00012890","REV_AT_EPOCH":"5191","BSTAR":"0.00009874300000","MEAN_ELEMENT_THEORY":"SGP4","CENTER_NAME":"EARTH","TIME_SYSTEM":"UTC","OBJECT_TYPE":"PAYLOAD","PERIOD":"95.592","SITE":"AFETR","SEMIMAJOR_AXIS":"6925.347","TLE_LINE1":"1 48126U 21027AL  22064.81084159  .00001190  00000-0  98743-4 0  9999","ELEMENT_SET_NO":"999"},{"ECCENTRICITY":"0.00015540","OBJECT_ID":"2021-027AM","REV_AT_EPOCH":"5163","BSTAR":"0.00017718000000","MEAN_ELEMENT_THEORY":"SGP4","TIME_SYSTEM":"UTC","CENTER_NAME":"EARTH","SEMIMAJOR_AXIS":"6925.325","SITE":"AFETR","OBJECT_TYPE":"PAYLOAD","PERIOD":"95.592","ELEMENT_SET_NO":"999","TLE_LINE1":"1 48127U 21027AM  22064.86797107  .00002359  00000-0  17718-3 0  9999","CLASSIFICATION_TYPE":"U","GP_ID":"198018434","APOAPSIS":"548.267","COUNTRY_CODE":"US","DECAY_DATE":null,"MEAN_MOTION":"15.06407543","ARG_OF_PERICENTER":"75.2231","PERIAPSIS":"546.114","OBJECT_NAME":"STARLINK-2468","RCS_SIZE":"LARGE","MEAN_MOTION_DOT":"0.00002359","REF_FRAME":"TEME","FILE":"3346512","LAUNCH_DATE":"2021-04-07","NORAD_CAT_ID":"48127","MEAN_MOTION_DDOT":"0.0000000000000","EPOCH":"2022-03-05T20:49:52.700448","EPHEMERIS_TYPE":"0","TLE_LINE2":"2 48127  53.0539 267.4671 0001554  75.2231 284.8930 15.06407543 51631","RA_OF_ASC_NODE":"267.4671","MEAN_ANOMALY":"284.8930","INCLINATION":"53.0539"},{"MEAN_ELEMENT_THEORY":"SGP4","BSTAR":"0.00019979000000","REV_AT_EPOCH":"5257","TIME_SYSTEM":"UTC","CENTER_NAME":"EARTH","OBJECT_ID":"2021-027AN","ECCENTRICITY":"0.00013400","TLE_LINE1":"1 48128U 21027AN  22064.64125006  .00002696  00000-0  19979-3 0  9994","ELEMENT_SET_NO":"999","OBJECT_TYPE":"PAYLOAD","PERIOD":"95.592","SEMIMAJOR_AXIS":"6925.325","SITE":"AFETR","MEAN_MOTION_DOT":"0.00002696","RCS_SIZE":"LARGE","OBJECT_NAME":"STARLINK-2469","PERIAPSIS":"546.262","DECAY_DATE":null,"MEAN_MOTION":"15.06407673","ARG_OF_PERICENTER":"99.3331","CLASSIFICATION_TYPE":"U","APOAPSIS":"548.118","GP_ID":"198017682","COUNTRY_CODE":"US","MEAN_ANOMALY":"260.7810","INCLINATION":"53.0564","EPOCH":"2022-03-05T15:23:24.005184","RA_OF_ASC_NODE":"198.4778","TLE_LINE2":"2 48128  53.0564 198.4778 0001340  99.3331 260.7810 15.06407673 52570","EPHEMERIS_TYPE":"0","MEAN_MOTION_DDOT":"0.0000000000000","FILE":"3346512","REF_FRAME":"TEME","NORAD_CAT_ID":"48128","LAUNCH_DATE":"2021-04-07"},{"INCLINATION":"53.0526","MEAN_ANOMALY":"289.6743","EPOCH":"2022-03-05T22:14:48.448032","TLE_LINE2":"2 48129  53.0526 267.2013 0001424  70.4400 289.6743 15.06396068 51643","EPHEMERIS_TYPE":"0","RA_OF_ASC_NODE":"267.2013","MEAN_MOTION_DDOT":"0.0000000000000","FILE":"3346512","REF_FRAME":"TEME","NORAD_CAT_ID":"48129","LAUNCH_DATE":"2021-04-07","RCS_SIZE":"LARGE","MEAN_MOTION_DOT":"0.00001618","OBJECT_NAME":"STARLINK-2471","PERIAPSIS":"546.239","DECAY_DATE":null,"MEAN_MOTION":"15.06396068","ARG_OF_PERICENTER":"70.4400","CLASSIFICATION_TYPE":"U","COUNTRY_CODE":"US","GP_ID":"198017932","APOAPSIS":"548.212","TLE_LINE1":"1 48129U 21027AP  22064.92694963  .00001618  00000-0  12750-3 0  9992","ELEMENT_SET_NO":"999","OBJECT_TYPE":"PAYLOAD","PERIOD":"95.592","SITE":"AFETR","SEMIMAJOR_AXIS":"6925.361","MEAN_ELEMENT_THEORY":"SGP4","BSTAR":"0.00012750000000","REV_AT_EPOCH":"5164","CENTER_NAME":"EARTH","TIME_SYSTEM":"UTC","ECCENTRICITY":"0.00014240","OBJECT_ID":"2021-027AP"},{"ELEMENT_SET_NO":"999","TLE_LINE1":"1 48130U 21027AQ  22064.84998030  .00001131  00000-0  94817-4 0  9992","SEMIMAJOR_AXIS":"6925.321","SITE":"AFETR","PERIOD":"95.592","OBJECT_TYPE":"PAYLOAD","TIME_SYSTEM":"UTC","CENTER_NAME":"EARTH","BSTAR":"0.00009481700000","MEAN_ELEMENT_THEORY":"SGP4","REV_AT_EPOCH":"5156","OBJECT_ID":"2021-027AQ","ECCENTRICITY":"0.00013500","TLE_LINE2":"2 48130  53.0543 272.5416 0001350  61.0645 299.0479 15.06409001 51569","RA_OF_ASC_NODE":"272.5416","EPHEMERIS_TYPE":"0","EPOCH":"2022-03-05T20:23:58.297920","INCLINATION":"53.0543","MEAN_ANOMALY":"299.0479","NORAD_CAT_ID":"48130","LAUNCH_DATE":"2021-04-07","REF_FRAME":"TEME","FILE":"3346512","MEAN_MOTION_DDOT":"0.0000000000000","PERIAPSIS":"546.251","RCS_SIZE":"LARGE","OBJECT_NAME":"STARLINK-2472","MEAN_MOTION_DOT":"0.00001131","GP_ID":"198018683","COUNTRY_CODE":"US","APOAPSIS":"548.121","CLASSIFICATION_TYPE":"U","MEAN_MOTION":"15.06409001","ARG_OF_PERICENTER":"61.0645","DECAY_DATE":null},{"COUNTRY_CODE":"US","GP_ID":"198018934","APOAPSIS":"548.263","CLASSIFICATION_TYPE":"U","ARG_OF_PERICENTER":"85.2509","MEAN_MOTION":"15.06411126","DECAY_DATE":null,"PERIAPSIS":"546.096","RCS_SIZE":"LARGE","MEAN_MOTION_DOT":"0.00001693","OBJECT_NAME":"STARLINK-2473","LAUNCH_DATE":"2021-04-07","NORAD_CAT_ID":"48131","REF_FRAME":"TEME","FILE":"3346512","MEAN_MOTION_DDOT":"0.0000000000000","TLE_LINE2":"2 48131  53.0528 247.4494 0001565  85.2509 274.8658 15.06411126 51915","RA_OF_ASC_NODE":"247.4494","EPHEMERIS_TYPE":"0","EPOCH":"2022-03-05T20:52:31.584864","MEAN_ANOMALY":"274.8658","INCLINATION":"53.0528","OBJECT_ID":"2021-027AR","ECCENTRICITY":"0.00015650","CENTER_NAME":"EARTH","TIME_SYSTEM":"UTC","BSTAR":"0.00013246000000","REV_AT_EPOCH":"5191","MEAN_ELEMENT_THEORY":"SGP4","SITE":"AFETR","SEMIMAJOR_AXIS":"6925.314","PERIOD":"95.591","OBJECT_TYPE":"PAYLOAD","ELEMENT_SET_NO":"999","TLE_LINE1":"1 48131U 21027AR  22064.86981001  .00001693  00000-0  13246-3 0  9994"}];
